CSS (TIANHE)            
1 48274U 21035A   24282.57104334  .00069989  00000+0  71002-3 0  9994
2 48274  41.4657 111.5884 0003218 158.1466 201.9511 15.64259385196831
